CCSDS_OMM_VERS = 2.0
CREATION_DATE  = 
ORIGINATOR     = 

OBJECT_NAME    = ATLAS CENTAUR R/B
OBJECT_ID      = 1972-065B
CENTER_NAME    = EARTH
REF_FRAME      = TEME
TIME_SYSTEM    = UTC
MEAN_ELEMENT_THEORY = SGP/SGP4

EPOCH          = 2026-02-09T07:33:18.912672
MEAN_MOTION    = 14.77603317
ECCENTRICITY   = .0033196
INCLINATION    = 35.0012
RA_OF_ASC_NODE = 112.0279
ARG_OF_PERICENTER = 132.0293
MEAN_ANOMALY   = 228.3241

EPHEMERIS_TYPE = 0
CLASSIFICATION_TYPE = U
NORAD_CAT_ID   = 6155
ELEMENT_SET_NO = 999
REV_AT_EPOCH   = 83706
BSTAR          = .21723E-3
MEAN_MOTION_DOT = .1569E-4
MEAN_MOTION_DDOT = 0

CCSDS_OMM_VERS = 2.0
CREATION_DATE  = 
ORIGINATOR     = 

OBJECT_NAME    = SL-8 R/B
OBJECT_ID      = 1975-112B
CENTER_NAME    = EARTH
REF_FRAME      = TEME
TIME_SYSTEM    = UTC
MEAN_ELEMENT_THEORY = SGP/SGP4

EPOCH          = 2026-02-09T12:57:42.693408
MEAN_MOTION    = 14.38189484
ECCENTRICITY   = .0015363
INCLINATION    = 74.0591
RA_OF_ASC_NODE = 70.6981
ARG_OF_PERICENTER = 173.9252
MEAN_ANOMALY   = 186.2091

EPHEMERIS_TYPE = 0
CLASSIFICATION_TYPE = U
NORAD_CAT_ID   = 8459
ELEMENT_SET_NO = 999
REV_AT_EPOCH   = 62782
BSTAR          = .76057E-4
MEAN_MOTION_DOT = .205E-5
MEAN_MOTION_DDOT = 0

CCSDS_OMM_VERS = 2.0
CREATION_DATE  = 
ORIGINATOR     = 

OBJECT_NAME    = SL-3 R/B
OBJECT_ID      = 1977-057B
CENTER_NAME    = EARTH
REF_FRAME      = TEME
TIME_SYSTEM    = UTC
MEAN_ELEMENT_THEORY = SGP/SGP4

EPOCH          = 2026-02-09T19:20:06.147744
MEAN_MOTION    = 15.44678169
ECCENTRICITY   = .0007947
INCLINATION    = 97.5734
RA_OF_ASC_NODE = 211.5238
ARG_OF_PERICENTER = 31.6680
MEAN_ANOMALY   = 328.5045

EPHEMERIS_TYPE = 0
CLASSIFICATION_TYPE = U
NORAD_CAT_ID   = 10114
ELEMENT_SET_NO = 999
REV_AT_EPOCH   = 66402
BSTAR          = .2845E-3
MEAN_MOTION_DOT = .13194E-3
MEAN_MOTION_DDOT = 0

CCSDS_OMM_VERS = 2.0
CREATION_DATE  = 
ORIGINATOR     = 

OBJECT_NAME    = SEASAT 1
OBJECT_ID      = 1978-064A
CENTER_NAME    = EARTH
REF_FRAME      = TEME
TIME_SYSTEM    = UTC
MEAN_ELEMENT_THEORY = SGP/SGP4

EPOCH          = 2026-02-09T19:50:53.687328
MEAN_MOTION    = 14.46137617
ECCENTRICITY   = .0001634
INCLINATION    = 108.0162
RA_OF_ASC_NODE = 67.0263
ARG_OF_PERICENTER = 291.7571
MEAN_ANOMALY   = 68.3400

EPHEMERIS_TYPE = 0
CLASSIFICATION_TYPE = U
NORAD_CAT_ID   = 10967
ELEMENT_SET_NO = 999
REV_AT_EPOCH   = 50248
BSTAR          = .13293E-3
MEAN_MOTION_DOT = .338E-5
MEAN_MOTION_DDOT = 0

CCSDS_OMM_VERS = 2.0
CREATION_DATE  = 
ORIGINATOR     = 

OBJECT_NAME    = SL-14 R/B
OBJECT_ID      = 1979-011B
CENTER_NAME    = EARTH
REF_FRAME      = TEME
TIME_SYSTEM    = UTC
MEAN_ELEMENT_THEORY = SGP/SGP4

EPOCH          = 2026-02-09T16:17:48.367392
MEAN_MOTION    = 14.91873737
ECCENTRICITY   = .0016938
INCLINATION    = 82.5252
RA_OF_ASC_NODE = 123.1486
ARG_OF_PERICENTER = 146.7559
MEAN_ANOMALY   = 213.4728

EPHEMERIS_TYPE = 0
CLASSIFICATION_TYPE = U
NORAD_CAT_ID   = 11267
ELEMENT_SET_NO = 999
REV_AT_EPOCH   = 52460
BSTAR          = .70043E-4
MEAN_MOTION_DOT = .735E-5
MEAN_MOTION_DDOT = 0

CCSDS_OMM_VERS = 2.0
CREATION_DATE  = 
ORIGINATOR     = 

OBJECT_NAME    = SL-8 R/B
OBJECT_ID      = 1979-089B
CENTER_NAME    = EARTH
REF_FRAME      = TEME
TIME_SYSTEM    = UTC
MEAN_ELEMENT_THEORY = SGP/SGP4

EPOCH          = 2026-02-09T17:22:46.580736
MEAN_MOTION    = 14.42333259
ECCENTRICITY   = .0016613
INCLINATION    = 74.0698
RA_OF_ASC_NODE = 142.8095
ARG_OF_PERICENTER = 318.9218
MEAN_ANOMALY   = 41.0686

EPHEMERIS_TYPE = 0
CLASSIFICATION_TYPE = U
NORAD_CAT_ID   = 11574
ELEMENT_SET_NO = 999
REV_AT_EPOCH   = 43207
BSTAR          = .10945E-3
MEAN_MOTION_DOT = .336E-5
MEAN_MOTION_DDOT = 0

CCSDS_OMM_VERS = 2.0
CREATION_DATE  = 
ORIGINATOR     = 

OBJECT_NAME    = SL-14 R/B
OBJECT_ID      = 1980-005B
CENTER_NAME    = EARTH
REF_FRAME      = TEME
TIME_SYSTEM    = UTC
MEAN_ELEMENT_THEORY = SGP/SGP4

EPOCH          = 2026-02-09T19:23:21.307200
MEAN_MOTION    = 14.90893380
ECCENTRICITY   = .001414
INCLINATION    = 82.5174
RA_OF_ASC_NODE = 333.6760
ARG_OF_PERICENTER = 255.3929
MEAN_ANOMALY   = 104.5722

EPHEMERIS_TYPE = 0
CLASSIFICATION_TYPE = U
NORAD_CAT_ID   = 11672
ELEMENT_SET_NO = 999
REV_AT_EPOCH   = 47233
BSTAR          = .79661E-4
MEAN_MOTION_DOT = .811E-5
MEAN_MOTION_DDOT = 0

CCSDS_OMM_VERS = 2.0
CREATION_DATE  = 
ORIGINATOR     = 

OBJECT_NAME    = SL-8 R/B
OBJECT_ID      = 1981-003B
CENTER_NAME    = EARTH
REF_FRAME      = TEME
TIME_SYSTEM    = UTC
MEAN_ELEMENT_THEORY = SGP/SGP4

EPOCH          = 2026-02-09T18:40:51.954240
MEAN_MOTION    = 15.09959874
ECCENTRICITY   = .0263129
INCLINATION    = 82.9391
RA_OF_ASC_NODE = 315.8112
ARG_OF_PERICENTER = 276.0946
MEAN_ANOMALY   = 81.0364

EPHEMERIS_TYPE = 0
CLASSIFICATION_TYPE = U
NORAD_CAT_ID   = 12139
ELEMENT_SET_NO = 999
REV_AT_EPOCH   = 31046
BSTAR          = .45473E-3
MEAN_MOTION_DOT = .17162E-3
MEAN_MOTION_DDOT = 0

CCSDS_OMM_VERS = 2.0
CREATION_DATE  = 
ORIGINATOR     = 

OBJECT_NAME    = SL-3 R/B
OBJECT_ID      = 1981-046B
CENTER_NAME    = EARTH
REF_FRAME      = TEME
TIME_SYSTEM    = UTC
MEAN_ELEMENT_THEORY = SGP/SGP4

EPOCH          = 2026-02-09T19:24:46.184832
MEAN_MOTION    = 15.41209126
ECCENTRICITY   = .0020728
INCLINATION    = 81.2339
RA_OF_ASC_NODE = 323.1963
ARG_OF_PERICENTER = 113.5068
MEAN_ANOMALY   = 246.8356

EPHEMERIS_TYPE = 0
CLASSIFICATION_TYPE = U
NORAD_CAT_ID   = 12465
ELEMENT_SET_NO = 999
REV_AT_EPOCH   = 43413
BSTAR          = .33116E-3
MEAN_MOTION_DOT = .13891E-3
MEAN_MOTION_DDOT = 0

CCSDS_OMM_VERS = 2.0
CREATION_DATE  = 
ORIGINATOR     = 

OBJECT_NAME    = SL-3 R/B
OBJECT_ID      = 1981-103B
CENTER_NAME    = EARTH
REF_FRAME      = TEME
TIME_SYSTEM    = UTC
MEAN_ELEMENT_THEORY = SGP/SGP4

EPOCH          = 2026-02-09T19:35:51.280800
MEAN_MOTION    = 15.21035679
ECCENTRICITY   = .0013688
INCLINATION    = 81.1564
RA_OF_ASC_NODE = 246.1266
ARG_OF_PERICENTER = 23.0367
MEAN_ANOMALY   = 337.1475

EPHEMERIS_TYPE = 0
CLASSIFICATION_TYPE = U
NORAD_CAT_ID   = 12904
ELEMENT_SET_NO = 999
REV_AT_EPOCH   = 96899
BSTAR          = .22249E-3
MEAN_MOTION_DOT = .4974E-4
MEAN_MOTION_DDOT = 0

CCSDS_OMM_VERS = 2.0
CREATION_DATE  = 
ORIGINATOR     = 

OBJECT_NAME    = SL-3 R/B
OBJECT_ID      = 1982-013B
CENTER_NAME    = EARTH
REF_FRAME      = TEME
TIME_SYSTEM    = UTC
MEAN_ELEMENT_THEORY = SGP/SGP4

EPOCH          = 2026-02-09T18:30:02.418912
MEAN_MOTION    = 15.21702745
ECCENTRICITY   = .0021665
INCLINATION    = 81.1742
RA_OF_ASC_NODE = 193.4796
ARG_OF_PERICENTER = 274.2158
MEAN_ANOMALY   = 85.6598

EPHEMERIS_TYPE = 0
CLASSIFICATION_TYPE = U
NORAD_CAT_ID   = 13068
ELEMENT_SET_NO = 999
REV_AT_EPOCH   = 40010
BSTAR          = .26376E-3
MEAN_MOTION_DOT = .6032E-4
MEAN_MOTION_DDOT = 0

CCSDS_OMM_VERS = 2.0
CREATION_DATE  = 
ORIGINATOR     = 

OBJECT_NAME    = SL-3 R/B
OBJECT_ID      = 1982-039B
CENTER_NAME    = EARTH
REF_FRAME      = TEME
TIME_SYSTEM    = UTC
MEAN_ELEMENT_THEORY = SGP/SGP4

EPOCH          = 2026-02-09T18:13:00.033024
MEAN_MOTION    = 15.09924522
ECCENTRICITY   = .0030077
INCLINATION    = 81.1611
RA_OF_ASC_NODE = 248.1562
ARG_OF_PERICENTER = 55.8192
MEAN_ANOMALY   = 304.5877

EPHEMERIS_TYPE = 0
CLASSIFICATION_TYPE = U
NORAD_CAT_ID   = 13154
ELEMENT_SET_NO = 999
REV_AT_EPOCH   = 37742
BSTAR          = .15448E-3
MEAN_MOTION_DOT = .2554E-4
MEAN_MOTION_DDOT = 0

