ATLAS CENTAUR R/B       
1 06155U 72065B   26040.31480223  .00001569  00000+0  21723-3 0  9990
2 06155  35.0012 112.0279 0033196 132.0293 228.3241 14.77603317837069
SL-8 R/B                
1 08459U 75112B   26040.54007747  .00000205  00000+0  76057-4 0  9993
2 08459  74.0591  70.6981 0015363 173.9252 186.2091 14.38189484627824
SL-3 R/B                
1 10114U 77057B   26040.80562671  .00013194  00000+0  28450-3 0  9999
2 10114  97.5734 211.5238 0007947  31.6680 328.5045 15.44678169664023
SEASAT 1                
1 10967U 78064A   26040.82701027  .00000338  00000+0  13293-3 0  9991
2 10967 108.0162  67.0263 0001634 291.7571  68.3400 14.46137617502483
SL-14 R/B               
1 11267U 79011B   26040.67903203  .00000735  00000+0  70043-4 0  9999
2 11267  82.5252 123.1486 0016938 146.7559 213.4728 14.91873737524606
SL-8 R/B                
1 11574U 79089B   26040.72415024  .00000336  00000+0  10945-3 0  9991
2 11574  74.0698 142.8095 0016613 318.9218  41.0686 14.42333259432079
SL-14 R/B               
1 11672U 80005B   26040.80788550  .00000811  00000+0  79661-4 0  9995
2 11672  82.5174 333.6760 0014140 255.3929 104.5722 14.90893380472334
SL-8 R/B                
1 12139U 81003B   26040.77837910  .00017162  00000+0  45473-3 0  9994
2 12139  82.9391 315.8112 0263129 276.0946  81.0364 15.09959874310461
SL-3 R/B                
1 12465U 81046B   26040.80886788  .00013891  00000+0  33116-3 0  9990
2 12465  81.2339 323.1963 0020728 113.5068 246.8356 15.41209126434136
SL-3 R/B                
1 12904U 81103B   26040.81656575  .00004974  00000+0  22249-3 0  9999
2 12904  81.1564 246.1266 0013688  23.0367 337.1475 15.21035679968997
SL-3 R/B                
1 13068U 82013B   26040.77086133  .00006032  00000+0  26376-3 0  9996
2 13068  81.1742 193.4796 0021665 274.2158  85.6598 15.21702745400101
SL-3 R/B                
1 13154U 82039B   26040.75902816  .00002554  00000+0  15448-3 0  9996
2 13154  81.1611 248.1562 0030077  55.8192 304.5877 15.09924522377425
